COSMOS 2425 (716)       
1 29670U 06062A   18247.35563074  .00000043  00000-0  10000-3 0  9994
2 29670  65.2404 289.8646 0020230 339.7410 348.2756  2.13105064 90998
COSMOS 2426 (717)       
1 29671U 06062B   18246.74911280  .00000040  00000-0  10000-3 0  9990
2 29671  65.2588 289.9823 0019005 172.5209 265.3616  2.13103063 90998
COSMOS 2433 (720)       
1 32275U 07052A   18246.63386634  .00000013  00000-0  10000-3 0  9991
2 32275  65.7262  50.7311 0001163 198.5196 126.8113  2.13104562 84497
COSMOS 2432 (719)       
1 32276U 07052B   18246.67217421  .00000013  00000-0  10000-3 0  9993
2 32276  65.7367  50.8079 0009484 343.8641 322.6590  2.13103897 84495
COSMOS 2434 (721)       
1 32393U 07065A   18247.35303931  .00000045  00000-0  00000+0 0  9995
2 32393  64.8555 288.7989 0003662 150.3092 254.6248  2.13103126 83228
COSMOS 2436 (723)       
1 32395U 07065C   18247.32749666  .00000045  00000-0  10000-3 0  9998
2 32395  64.8651 288.8517 0013621 352.6393  83.5914  2.13104504 83154
COSMOS 2456 (730)       
1 36111U 09070A   18246.73101326  .00000003  00000-0  00000+0 0  9994
2 36111  64.1881 168.4164 0005324 308.8421 151.3555  2.13103138 67877
COSMOS 2457 (733)       
1 36112U 09070B   18246.58916156  .00000004  00000-0  00000+0 0  9994
2 36112  64.1696 168.3309 0005417 180.4019 297.4491  2.13101669 67870
COSMOS 2458 (734)       
1 36113U 09070C   18246.59151304  .00000004  00000-0  10000-3 0  9997
2 36113  64.1753 168.3437 0002282 348.0580 177.5131  2.13091453 67877
COSMOS 2459 (731)       
1 36400U 10007A   18246.48561397  .00000011  00000-0  10000-3 0  9991
2 36400  65.6368  49.7864 0025766 356.4154  73.4929  2.13102237 66222
COSMOS 2461 (735)       
1 36401U 10007B   18247.48895184  .00000010  00000-0  10000-3 0  9996
2 36401  65.6285  49.7279 0008741  76.9742 313.2512  2.13102236 66246
COSMOS 2460 (732)       
1 36402U 10007C   18246.52614054  .00000011  00000-0  10000-3 0  9997
2 36402  65.6181  49.7275 0002292 101.8461 310.1951  2.13101653 66222
COSMOS 2464 (736)       
1 37139U 10041C   18246.71890014  .00000041  00000-0  00000-0 0  9995
2 37139  64.4582 288.5871 0021920   8.6245 137.6229  2.13102793 62299
COSMOS 2471 (701K)      
1 37372U 11009A   18246.66960709  .00000011  00000-0  00000+0 0  9998
2 37372  65.6147  49.6670 0007492 220.9140  86.8359  2.13107639 58492
COSMOS 2474 (742)       
1 37829U 11055A   18247.53012010 -.00000005  00000-0  00000+0 0  9990
2 37829  64.5105 169.1397 0009582 250.7896 320.2285  2.13102024 53880
COSMOS 2476 (744)       
1 37867U 11064A   18246.63518725  .00000005  00000-0  00000+0 0  9995
2 37867  64.4917 169.2305 0019330 243.4406  47.0761  2.13102040 53218
COSMOS 2477 (745)       
1 37868U 11064B   18246.86395760  .00000002  00000-0  00000+0 0  9990
2 37868  64.5001 169.2721 0017116 244.7947  40.0805  2.13101916 53178
COSMOS 2475 (743)       
1 37869U 11064C   18246.66043182  .00000004  00000-0  00000+0 0  9999
2 37869  64.5069 169.2747 0021618 267.6142 177.9324  2.13102313 53183
COSMOS 2485 (747)       
1 39155U 13019A   18246.79914293  .00000003  00000-0  00000+0 0  9994
2 39155  64.6605 169.3513 0019766 238.5643 222.5895  2.13102122 41697
COSMOS 2492 (754)       
1 39620U 14012A   18247.09345192  .00000010  00000-0  10000-3 0  9998
2 39620  65.5094  49.5841 0012563 336.2615  25.5340  2.13103455 34656
COSMOS 2500 (755)       
1 40001U 14032A   18246.73663596  .00000010  00000-0  00000-0 0  9992
2 40001  65.4509  49.5593 0006029 184.4723 125.6914  2.13102789 32856
COSMOS 2501 (702K)      
1 40315U 14075A   18246.60201919  .00000037  00000-0  00000+0 0  9998
2 40315  64.1825 289.7757 0017476 209.7989 157.8844  2.13098696 29265
COSMOS 2514 (751)       
1 41330U 16008A   18246.65529571  .00000010  00000-0  00000-0 0  9998
2 41330  65.2501  49.5951 0008973 201.7596 227.0572  2.13103281 20022
COSMOS 2516 (753)       
1 41554U 16032A   18246.43110241  .00000037  00000-0  00000-0 0  9998
2 41554  64.4026 289.6699 0014656 219.4821 288.2717  2.13101775 17629
COSMOS 2522 (752)       
1 42939U 17055A   18246.50445289  .00000038  00000-0  00000-0 0  9994
2 42939  64.6343 289.6552 0009609 241.5704 188.8840  2.13102006  7389
